start=new Date('2023-03-09T00:00:00.000Z').valueOf();
sats=[{"MEAN_MOTION_DDOT":"0.0000000000000","PERIOD":"95.591","DECAY_DATE":null,"FILE":"3855077","LAUNCH_DATE":"2021-05-09","SITE":"AFETR","TLE_LINE2":"2 48482  53.0523  85.8482 0001355  79.6967 280.4174 15.06411417101018","CENTER_NAME":"EARTH","APOAPSIS":"548.117","RA_OF_ASC_NODE":"85.8482","GP_ID":"227721488","PERIAPSIS":"546.240","BSTAR":"0.00090830000000","SEMIMAJOR_AXIS":"6925.314","OBJECT_NAME":"STARLINK-2525","MEAN_MOTION_DOT":"0.00013278","MEAN_ANOMALY":"280.4174","ELEMENT_SET_NO":"999","RCS_SIZE":"LARGE","TIME_SYSTEM":"UTC","COUNTRY_CODE":"US","OBJECT_ID":"2021-040BG","MEAN_MOTION":"15.06411417","REF_FRAME":"TEME","EPHEMERIS_TYPE":"0","EPOCH":"2023-03-08T18:39:15.276960","OBJECT_TYPE":"PAYLOAD","MEAN_ELEMENT_THEORY":"SGP4","NORAD_CAT_ID":"48482","ECCENTRICITY":"0.00013550","ARG_OF_PERICENTER":"79.6967","TLE_LINE1":"1 48482U 21040BG  23067.77726015  .00013278  00000-0  90830-3 0  9990","INCLINATION":"53.0523","REV_AT_EPOCH":"10101","CLASSIFICATION_TYPE":"U"},{"COUNTRY_CODE":"US","OBJECT_ID":"2021-040BH","MEAN_MOTION":"15.06408040","REF_FRAME":"TEME","EPHEMERIS_TYPE":"0","OBJECT_NAME":"STARLINK-2531","MEAN_MOTION_DOT":"0.00008467","MEAN_ANOMALY":"276.6216","ELEMENT_SET_NO":"999","RCS_SIZE":"LARGE","TIME_SYSTEM":"UTC","ECCENTRICITY":"0.00012440","ARG_OF_PERICENTER":"83.4914","TLE_LINE1":"1 48483U 21040BH  23067.77357118  .00008467  00000-0  58650-3 0  9993","INCLINATION":"53.0527","REV_AT_EPOCH":"10101","CLASSIFICATION_TYPE":"U","EPOCH":"2023-03-08T18:33:56.549952","OBJECT_TYPE":"PAYLOAD","MEAN_ELEMENT_THEORY":"SGP4","NORAD_CAT_ID":"48483","SITE":"AFETR","PERIOD":"95.592","MEAN_MOTION_DDOT":"0.0000000000000","DECAY_DATE":null,"FILE":"3855077","LAUNCH_DATE":"2021-05-09","APOAPSIS":"548.050","RA_OF_ASC_NODE":"85.8645","GP_ID":"227721735","BSTAR":"0.00058650000000","PERIAPSIS":"546.327","SEMIMAJOR_AXIS":"6925.324","TLE_LINE2":"2 48483  53.0527  85.8645 0001244  83.4914 276.6216 15.06408040101018","CENTER_NAME":"EARTH"},{"DECAY_DATE":null,"LAUNCH_DATE":"2021-05-09","FILE":"3855077","MEAN_MOTION_DDOT":"0.0000000000000","PERIOD":"95.593","SITE":"AFETR","CENTER_NAME":"EARTH","TLE_LINE2":"2 48484  53.0540  86.1773 0002017 101.8399 258.2816 15.06389001101018","RA_OF_ASC_NODE":"86.1773","GP_ID":"227720488","APOAPSIS":"548.644","SEMIMAJOR_AXIS":"6925.382","BSTAR":"0.00015400000000","PERIAPSIS":"545.850","ELEMENT_SET_NO":"999","TIME_SYSTEM":"UTC","RCS_SIZE":"LARGE","MEAN_MOTION_DOT":"0.00002012","OBJECT_NAME":"STARLINK-2696","MEAN_ANOMALY":"258.2816","MEAN_MOTION":"15.06389001","EPHEMERIS_TYPE":"0","REF_FRAME":"TEME","COUNTRY_CODE":"US","OBJECT_ID":"2021-040BJ","OBJECT_TYPE":"PAYLOAD","NORAD_CAT_ID":"48484","MEAN_ELEMENT_THEORY":"SGP4","EPOCH":"2023-03-08T18:49:55.602912","INCLINATION":"53.0540","TLE_LINE1":"1 48484U 21040BJ  23067.78467133  .00002012  00000-0  15400-3 0  9990","REV_AT_EPOCH":"10101","CLASSIFICATION_TYPE":"U","ECCENTRICITY":"0.00020170","ARG_OF_PERICENTER":"101.8399"},{"ARG_OF_PERICENTER":"84.0432","ECCENTRICITY":"0.00015770","INCLINATION":"53.0514","TLE_LINE1":"1 48485U 21040BK  23067.78094185  .00032676  00000-0  22005-2 0  9991","REV_AT_EPOCH":"10101","CLASSIFICATION_TYPE":"U","EPOCH":"2023-03-08T18:44:33.375840","OBJECT_TYPE":"PAYLOAD","NORAD_CAT_ID":"48485","MEAN_ELEMENT_THEORY":"SGP4","COUNTRY_CODE":"US","OBJECT_ID":"2021-040BK","MEAN_MOTION":"15.06432479","EPHEMERIS_TYPE":"0","REF_FRAME":"TEME","OBJECT_NAME":"STARLINK-2500","MEAN_MOTION_DOT":"0.00032676","MEAN_ANOMALY":"276.0737","ELEMENT_SET_NO":"999","TIME_SYSTEM":"UTC","RCS_SIZE":"LARGE","GP_ID":"227720238","RA_OF_ASC_NODE":"85.8326","APOAPSIS":"548.206","SEMIMAJOR_AXIS":"6925.249","BSTAR":"0.00220050000000","PERIAPSIS":"546.022","TLE_LINE2":"2 48485  53.0514  85.8326 0001577  84.0432 276.0737 15.06432479101018","CENTER_NAME":"EARTH","SITE":"AFETR","PERIOD":"95.590","MEAN_MOTION_DDOT":"0.0000000000000","DECAY_DATE":null,"LAUNCH_DATE":"2021-05-09","FILE":"3855077"},{"NORAD_CAT_ID":"48486","MEAN_ELEMENT_THEORY":"SGP4","OBJECT_TYPE":"PAYLOAD","EPOCH":"2023-03-08T12:26:20.874624","REV_AT_EPOCH":"10097","CLASSIFICATION_TYPE":"U","INCLINATION":"53.0511","TLE_LINE1":"1 48486U 21040BL  23067.51829716  .00017561  00000-0  11944-2 0  9995","ARG_OF_PERICENTER":"86.4989","ECCENTRICITY":"0.00014490","TIME_SYSTEM":"UTC","RCS_SIZE":"LARGE","ELEMENT_SET_NO":"999","MEAN_ANOMALY":"273.6166","OBJECT_NAME":"STARLINK-2496","MEAN_MOTION_DOT":"0.00017561","EPHEMERIS_TYPE":"0","REF_FRAME":"TEME","MEAN_MOTION":"15.06414668","OBJECT_ID":"2021-040BL","COUNTRY_CODE":"US","CENTER_NAME":"EARTH","TLE_LINE2":"2 48486  53.0511  86.9979 0001449  86.4989 273.6166 15.06414668100976","SEMIMAJOR_AXIS":"6925.304","PERIAPSIS":"546.165","BSTAR":"0.00119440000000","GP_ID":"227720988","RA_OF_ASC_NODE":"86.9979","APOAPSIS":"548.172","LAUNCH_DATE":"2021-05-09","FILE":"3855077","DECAY_DATE":null,"PERIOD":"95.591","MEAN_MOTION_DDOT":"0.0000000000000","SITE":"AFETR"},{"BSTAR":"0.00268570000000","PERIAPSIS":"546.148","SEMIMAJOR_AXIS":"6925.274","APOAPSIS":"548.130","GP_ID":"227721235","RA_OF_ASC_NODE":"86.9871","CENTER_NAME":"EARTH","TLE_LINE2":"2 48487  53.0544  86.9871 0001431  87.0866 273.0286 15.06424201100988","SITE":"AFETR","FILE":"3855077","LAUNCH_DATE":"2021-05-09","DECAY_DATE":null,"MEAN_MOTION_DDOT":"0.0000000000000","PERIOD":"95.591","CLASSIFICATION_TYPE":"U","REV_AT_EPOCH":"10098","TLE_LINE1":"1 48487U 21040BM  23067.52292921  .00039976  00000-0  26857-2 0  9992","INCLINATION":"53.0544","ECCENTRICITY":"0.00014310","ARG_OF_PERICENTER":"87.0866","MEAN_ELEMENT_THEORY":"SGP4","NORAD_CAT_ID":"48487","OBJECT_TYPE":"PAYLOAD","EPOCH":"2023-03-08T12:33:01.083744","REF_FRAME":"TEME","EPHEMERIS_TYPE":"0","MEAN_MOTION":"15.06424201","OBJECT_ID":"2021-040BM","COUNTRY_CODE":"US","RCS_SIZE":"LARGE","TIME_SYSTEM":"UTC","ELEMENT_SET_NO":"999","MEAN_ANOMALY":"273.0286","OBJECT_NAME":"STARLINK-2494","MEAN_MOTION_DOT":"0.00039976"},{"SITE":"AFETR","DECAY_DATE":null,"FILE":"3855077","LAUNCH_DATE":"2021-05-15","PERIOD":"95.591","MEAN_MOTION_DDOT":"0.0000000000000","APOAPSIS":"547.876","RA_OF_ASC_NODE":"15.6029","GP_ID":"227720245","BSTAR":"0.00080243000000","PERIAPSIS":"546.480","SEMIMAJOR_AXIS":"6925.313","CENTER_NAME":"EARTH","TLE_LINE2":"2 48553  53.0552  15.6029 0001008  95.2864 264.8240 15.06411551 99882","MEAN_MOTION":"15.06411551","REF_FRAME":"TEME","EPHEMERIS_TYPE":"0","COUNTRY_CODE":"US","OBJECT_ID":"2021-041A","ELEMENT_SET_NO":"999","RCS_SIZE":"LARGE","TIME_SYSTEM":"UTC","OBJECT_NAME":"STARLINK-2063","MEAN_MOTION_DOT":"0.00011695","MEAN_ANOMALY":"264.8240","TLE_LINE1":"1 48553U 21041A   23067.83162410  .00011695  00000-0  80243-3 0  9998","INCLINATION":"53.0552","REV_AT_EPOCH":"9988","CLASSIFICATION_TYPE":"U","ECCENTRICITY":"0.00010080","ARG_OF_PERICENTER":"95.2864","OBJECT_TYPE":"PAYLOAD","MEAN_ELEMENT_THEORY":"SGP4","NORAD_CAT_ID":"48553","EPOCH":"2023-03-08T19:57:32.322240"},{"CENTER_NAME":"EARTH","TLE_LINE2":"2 48554  53.0548  15.5734 0001327  98.2433 261.8706 15.06413084 99886","BSTAR":"0.00160350000000","PERIAPSIS":"546.254","SEMIMAJOR_AXIS":"6925.308","APOAPSIS":"548.092","GP_ID":"227720995","RA_OF_ASC_NODE":"15.5734","FILE":"3855077","LAUNCH_DATE":"2021-05-15","DECAY_DATE":null,"PERIOD":"95.591","MEAN_MOTION_DDOT":"0.0000000000000","SITE":"AFETR","MEAN_ELEMENT_THEORY":"SGP4","NORAD_CAT_ID":"48554","OBJECT_TYPE":"PAYLOAD","EPOCH":"2023-03-08T20:08:09.282048","REV_AT_EPOCH":"9988","CLASSIFICATION_TYPE":"U","TLE_LINE1":"1 48554U 21041B   23067.83899632  .00023692  00000-0  16035-2 0  9999","INCLINATION":"53.0548","ARG_OF_PERICENTER":"98.2433","ECCENTRICITY":"0.00013270","RCS_SIZE":"LARGE","TIME_SYSTEM":"UTC","ELEMENT_SET_NO":"999","MEAN_ANOMALY":"261.8706","OBJECT_NAME":"STARLINK-2139","MEAN_MOTION_DOT":"0.00023692","REF_FRAME":"TEME","EPHEMERIS_TYPE":"0","MEAN_MOTION":"15.06413084","OBJECT_ID":"2021-041B","COUNTRY_CODE":"US"},{"PERIOD":"95.591","MEAN_MOTION_DDOT":"0.0000000000000","DECAY_DATE":null,"FILE":"3855077","LAUNCH_DATE":"2021-05-15","SITE":"AFETR","TLE_LINE2":"2 48555  53.0543  28.1293 0001002  82.6843 277.4259 15.06415498 99656","CENTER_NAME":"EARTH","APOAPSIS":"547.860","RA_OF_ASC_NODE":"28.1293","GP_ID":"227721242","BSTAR":"0.00162830000000","PERIAPSIS":"546.472","SEMIMAJOR_AXIS":"6925.301","MEAN_MOTION_DOT":"0.00024065","OBJECT_NAME":"STARLINK-2145","MEAN_ANOMALY":"277.4259","ELEMENT_SET_NO":"999","RCS_SIZE":"LARGE","TIME_SYSTEM":"UTC","COUNTRY_CODE":"US","OBJECT_ID":"2021-041C","MEAN_MOTION":"15.06415498","REF_FRAME":"TEME","EPHEMERIS_TYPE":"0","EPOCH":"2023-03-08T06:29:26.041056","OBJECT_TYPE":"PAYLOAD","MEAN_ELEMENT_THEORY":"SGP4","NORAD_CAT_ID":"48555","ECCENTRICITY":"0.00010020","ARG_OF_PERICENTER":"82.6843","TLE_LINE1":"1 48555U 21041C   23067.27044029  .00024065  00000-0  16283-2 0  9990","INCLINATION":"53.0543","CLASSIFICATION_TYPE":"U","REV_AT_EPOCH":"9965"},{"ELEMENT_SET_NO":"999","TIME_SYSTEM":"UTC","RCS_SIZE":"LARGE","OBJECT_NAME":"STARLINK-2151","MEAN_MOTION_DOT":"0.00032835","MEAN_ANOMALY":"257.7928","MEAN_MOTION":"15.06416510","EPHEMERIS_TYPE":"0","REF_FRAME":"TEME","COUNTRY_CODE":"US","OBJECT_ID":"2021-041D","OBJECT_TYPE":"PAYLOAD","NORAD_CAT_ID":"48556","MEAN_ELEMENT_THEORY":"SGP4","EPOCH":"2023-03-08T07:49:05.036736","INCLINATION":"53.0555","TLE_LINE1":"1 48556U 21041D   23067.32575274  .00032835  00000-0  22120-2 0  9999","REV_AT_EPOCH":"9966","CLASSIFICATION_TYPE":"U","ECCENTRICITY":"0.00013150","ARG_OF_PERICENTER":"102.3209","DECAY_DATE":null,"LAUNCH_DATE":"2021-05-15","FILE":"3855077","MEAN_MOTION_DDOT":"0.0000000000000","PERIOD":"95.591","SITE":"AFETR","CENTER_NAME":"EARTH","TLE_LINE2":"2 48556  53.0555  27.8789 0001315 102.3209 257.7928 15.06416510 99660","RA_OF_ASC_NODE":"27.8789","GP_ID":"227719995","APOAPSIS":"548.074","SEMIMAJOR_AXIS":"6925.298","BSTAR":"0.00221200000000","PERIAPSIS":"546.252"}];
